MTI                     
1 26102U 00014A   20129.22722695  .00004157  00000-0  62297-4 0  9992
2 26102  97.5100   9.4079 0008735  25.9868 334.1820 15.55536248118268
CFESAT                  
1 30777U 07006F   20129.45617668  .00002288  00000-0  64015-4 0  9994
2 30777  35.4246 210.1881 0005172 198.2101 161.8440 15.36547252730293
SPIRALE A               
1 33751U 09008C   20129.12611029  .00000076  00000-0  51494-3 0  9991
2 33751   2.0293 251.0685 5378919 257.5229  40.1473  4.58738707159438
SPIRALE B               
1 33752U 09008D   20127.96995371  .00003289  00000-0  61281-3 0  9991
2 33752   1.8275 167.5622 6918880  52.0952 352.4861  2.75661285103608
SAPPHIRE                
1 39088U 13009C   20129.23008717 -.00000002  00000-0  14563-4 0  9999
2 39088  98.4733 331.4313 0012303  49.2626 310.9625 14.34207591376716
